OBJECT_NAME,OBJECT_ID,EPOCH,MEAN_MOTION,ECCENTRICITY,INCLINATION,RA_OF_ASC_NODE,ARG_OF_PERICENTER,MEAN_ANOMALY,EPHEMERIS_TYPE,CLASSIFICATION_TYPE,NORAD_CAT_ID,ELEMENT_SET_NO,REV_AT_EPOCH,BSTAR,MEAN_MOTION_DOT,MEAN_MOTION_DDOT
COSMOS 2526,2018-037A,2024-01-19T12:15:46.124928,1.00270019,.0000407,0.0306,106.5048,303.8249,20.0682,0,U,43432,999,2114,0,-.34E-5,0
APSTAR-6C,2018-041A,2024-01-20T12:50:42.624384,1.00273074,.0002536,0.0628,264.9335,8.6350,172.4987,0,U,43450,999,2101,0,-.313E-5,0
BANGABANDHUSAT-1,2018-044A,2024-01-20T17:59:42.641376,1.00272202,.0002499,0.0277,108.0923,193.6844,206.8456,0,U,43463,999,2092,0,-.358E-5,0
SES-12,2018-049A,2024-01-20T09:30:32.880096,1.00271699,.0002628,0.0125,28.6299,252.0078,76.2462,0,U,43488,999,2060,0,-.265E-5,0
FENGYUN 2H,2018-050A,2024-01-20T11:26:35.687616,1.00271462,.0000416,0.7583,88.3331,349.0831,292.9718,0,U,43491,999,2062,0,-.127E-5,0
TELSTAR 19V,2018-059A,2024-01-19T12:24:59.700096,1.00269560,.0001027,0.0326,169.9918,37.3292,34.2926,0,U,43562,999,2034,0,-.275E-5,0
TELKOM 4 (MERAH PUTIH),2018-064A,2024-01-20T17:16:42.636288,1.00271875,.0001457,0.0116,11.4609,309.0885,166.1928,0,U,43587,999,2005,0,-.34E-5,0
TELSTAR 18V,2018-069A,2024-01-19T16:22:42.587040,1.00270641,.0002097,0.0180,65.7883,231.1545,205.2830,0,U,43611,999,1980,0,-.289E-5,0
AZERSPACE 2 (IS-38),2018-074A,2024-01-20T11:16:41.705760,1.00270916,.0001713,0.0167,69.9159,231.7450,31.9397,0,U,43632,999,1963,0,.141E-5,0
HORIZONS-3E,2018-074B,2024-01-20T01:49:42.695904,1.00270182,.0000924,0.0111,250.7439,41.0437,23.5825,0,U,43633,999,1952,0,-.26E-6,0
FENGYUN 2H DEB,2018-050D,2024-01-19T18:17:31.272000,1.00290028,.003584,2.6331,87.8867,242.1219,117.2474,0,U,43645,999,2010,0,.89E-6,0
AEHF-4 (USA 288),2018-079A,2024-01-20T14:10:37.751808,1.00274448,.0004557,1.8819,325.6709,330.3021,328.5912,0,U,43651,999,1948,0,-.268E-5,0
BEIDOU-3 G1,2018-085A,2024-01-20T15:46:34.025664,1.00273895,.0001781,1.8347,116.2038,328.0013,51.9789,0,U,43683,999,1925,0,-.275E-5,0
GSAT-29,2018-089A,2024-01-20T11:19:34.636224,1.00269406,.0003489,0.0770,93.3773,186.3221,64.5894,0,U,43698,999,1897,0,.89E-6,0
ES'HAIL 2,2018-090A,2024-01-20T18:03:41.640192,1.00273129,.0002724,0.0163,82.9154,256.0096,77.3869,0,U,43700,999,1911,0,.148E-5,0
GEO-KOMPSAT-2A,2018-100A,2024-01-20T17:35:42.808704,1.00272501,.0000402,0.0145,120.6716,269.7765,121.3067,0,U,43823,999,1885,0,-.34E-5,0
GSAT-11,2018-100B,2024-01-20T11:24:57.943296,1.00270536,.000154,0.1099,271.8978,108.1329,344.5336,0,U,43824,999,1866,0,-.72E-6,0
GSAT-7A,2018-105A,2024-01-20T11:21:49.974048,1.00273213,.0002464,0.0928,266.2881,5.3772,80.9231,0,U,43864,999,1864,0,.3E-6,0
COSMOS 2533,2018-107A,2024-01-19T21:05:42.647712,1.00270298,.0000058,0.0338,114.1269,233.6639,157.3780,0,U,43867,999,1861,0,-.34E-6,0
TJS-3,2018-110A,2024-01-20T17:02:40.000416,1.00273324,.0004479,0.2700,88.9917,173.6677,285.5527,0,U,43874,999,1867,0,.6E-7,0
CHINASAT 2D (ZX 2D),2019-001A,2024-01-20T12:50:42.624384,1.00273747,.0002633,0.0600,255.0926,349.9836,196.9713,0,U,43920,999,4526,0,-.333E-5,0
HELLAS-SAT 4 & SGS-1,2019-007A,2024-01-20T11:14:56.442048,1.00272621,.0003517,0.0668,118.2857,53.2886,155.4730,0,U,44034,999,1854,0,.157E-5,0
GSAT-31,2019-007B,2024-01-20T11:17:19.299264,1.00271741,.0006315,0.0341,242.7622,39.2935,54.4743,0,U,44035,999,1816,0,.129E-5,0
NUSANTARA SATU,2019-009A,2024-01-19T18:34:24.153888,1.00270453,.0000914,0.0309,117.6357,53.8046,11.7949,0,U,44048,999,1795,0,-.23E-5,0
CHINASAT 6C (ZX 6C),2019-012A,2024-01-20T12:50:42.624384,1.00272881,.0005201,0.0819,93.0591,110.8565,238.5942,0,U,44067,999,1792,0,-.331E-5,0
WGS 10 (USA 291),2019-014A,2024-01-20T11:21:04.861152,1.00270571,.0000416,0.0142,63.8598,209.5898,76.4405,0,U,44071,999,1781,0,.51E-6,0
TIANLIAN 2-01,2019-017A,2024-01-20T11:25:50.573856,1.00271495,.0003446,0.1114,256.3991,66.5383,44.8872,0,U,44076,999,1783,0,-.102E-5,0
ARABSAT-6A,2019-021A,2024-01-20T11:12:18.548640,1.00270828,.000559,0.0411,41.0815,248.8812,27.9186,0,U,44186,999,1734,0,.158E-5,0
BEIDOU-3 IGSO-1,2019-023A,2023-12-25T20:32:05.404704,1.00248909,.0023834,57.3835,47.0551,204.1671,266.3544,0,U,44204,999,1727,0,-.224E-5,0
BEIDOU-2 G8,2019-027A,2024-01-20T15:19:39.726336,1.00267305,.0004263,1.5822,72.6631,182.7727,238.4321,0,U,44231,999,1727,0,-.246E-5,0
YAMAL 601,2019-031A,2024-01-20T06:08:25.536768,1.00272801,.0002727,0.0139,123.1162,174.7329,322.3650,0,U,44307,999,1710,0,.124E-5,0
AT&T T-16,2019-034A,2024-01-20T03:21:36.577152,1.00269359,.0000514,0.0018,126.2553,45.6762,256.6062,0,U,44333,999,1681,0,-.11E-5,0
EUTELSAT 7C,2019-034B,2024-01-20T07:18:42.683616,1.00270975,.0003393,0.0705,197.3680,86.3881,312.0528,0,U,44334,999,1729,0,.52E-6,0
BEIDOU-3 IGSO-2,2019-035A,2024-01-19T07:12:42.425856,1.00287457,.0031529,55.1687,166.5840,200.9223,337.5273,0,U,44337,999,1684,0,-.94E-6,0
COSMOS 2539,2019-048A,2024-01-19T12:46:17.889600,1.00270387,.0000313,0.0321,113.2924,268.3408,300.3443,0,U,44457,999,1639,0,.85E-6,0
EDRS-C,2019-049A,2024-01-20T13:57:26.470368,1.00272582,.0000418,0.0659,248.1509,42.8819,68.9386,0,U,44475,999,1638,0,.159E-5,0
INTELSAT 39 (IS-39),2019-049B,2024-01-20T09:38:26.990592,1.00270342,.0001182,0.0272,58.6339,99.8514,167.3423,0,U,44476,999,1632,0,.38E-6,0
AMOS-17,2019-050A,2024-01-20T05:59:16.666080,1.00269995,.0002016,0.0188,79.1948,240.0315,266.6981,0,U,44479,999,1637,0,.113E-5,0
COSMOS 1897 DEB,1987-096G,2024-01-19T23:10:48.303840,1.00469781,.0021414,12.0993,332.3799,273.5664,251.3830,0,U,44572,999,6215,0,.134E-5,0
LUCH DEB,1994-082G,2024-01-20T04:07:44.962752,1.00685147,.00174,14.6845,0.9022,79.2809,87.9373,0,U,44582,999,3739,0,-.58E-6,0
EUTELSAT 5 WEST B,2019-067A,2024-01-20T17:54:47.808288,1.00271187,.0003229,0.0887,318.7571,338.5027,86.0228,0,U,44624,999,1563,0,-.38E-6,0
MEV-1,2019-067B,2024-01-20T10:55:53.588640,1.00270036,.0000873,0.0575,258.1231,38.7677,318.8918,0,U,44625,999,1417,0,-.198E-5,0
TJS-4,2019-070A,2024-01-20T19:40:27.751296,1.00269458,.0002021,0.0427,226.4803,122.0817,149.7848,0,U,44637,999,1573,0,-.165E-5,0
BEIDOU-3 IGSO-3,2019-073A,2024-01-20T03:35:14.226144,1.00295049,.0034741,56.3021,290.3028,182.2495,177.7816,0,U,44709,999,1562,0,-.201E-5,0
TIBA-1,2019-080A,2024-01-20T18:06:27.052128,1.00273004,.0002445,0.0532,23.9863,276.3804,126.3405,0,U,44800,999,1527,0,.16E-5,0
INMARSAT GX5,2019-080B,2024-01-20T17:59:26.000736,1.00270592,.0002553,0.0373,31.3751,275.8659,93.1874,0,U,44801,999,1528,0,.78E-6,0
JCSAT-18 (KACIFIC 1),2019-091A,2024-01-19T18:35:31.823232,1.00270954,.000064,0.0343,206.0738,100.1536,241.2809,0,U,44868,999,1520,0,-.196E-5,0
ELEKTRO-L 3,2019-095A,2024-01-20T11:25:35.536800,1.00274082,.0001333,0.0806,277.9931,20.6243,68.1258,0,U,44903,999,1489,0,-.93E-6,0
SHIJIAN-20 (SJ-20),2019-097A,2024-01-20T18:12:05.397120,1.00559180,.000095,2.6586,85.6741,177.0466,185.1553,0,U,44910,999,1488,0,.33E-6,0
TJS-5,2020-002A,2024-01-20T12:19:42.720960,1.00267229,.0004933,0.2072,79.0838,154.7194,177.9524,0,U,44978,999,1488,0,-.338E-5,0
GSAT-30,2020-005A,2024-01-20T13:00:32.582592,1.00272312,.0001356,0.0375,99.2678,158.1177,140.1438,0,U,45026,999,1469,0,-.161E-5,0
EUTELSAT KONNECT,2020-005B,2024-01-20T09:22:32.109024,1.00270017,.0000521,0.0616,89.3120,209.5210,328.2383,0,U,45027,999,1551,0,.53E-6,0
JCSAT-17,2020-013A,2024-01-20T08:16:29.717760,1.00271407,.0004494,5.6790,348.7490,313.1599,77.4173,0,U,45245,999,1442,0,-.308E-5,0
GEO-KOMPSAT-2B,2020-013B,2024-01-20T13:23:38.213952,1.00272757,.0002612,0.0491,242.3205,48.0282,158.2160,0,U,45246,999,1446,0,-.34E-5,0
BEIDOU-3 G2,2020-017A,2024-01-20T11:26:43.206144,1.00271214,.0003251,2.1528,23.2512,256.9506,90.8432,0,U,45344,999,1444,0,-.138E-5,0
BEIDOU-3 G3,2020-040A,2024-01-19T23:33:29.319840,1.00269136,.0009393,0.5935,16.0172,298.5201,268.2426,0,U,45807,999,1325,0,-.349E-5,0
APSTAR-6D,2020-045A,2024-01-19T21:57:07.270272,1.00268361,.0000878,0.0150,74.8324,255.7093,251.5360,0,U,45863,999,1304,0,-.314E-5,0
KOREASAT 116,2020-048A,2024-01-20T13:09:42.661152,1.00270510,.0001161,0.0145,51.1233,243.9530,137.9567,0,U,45920,999,1282,0,-.358E-5,0
EXPRESS 103,2020-053A,2024-01-20T13:10:32.836224,1.00269752,.0000174,0.0273,58.7290,144.5361,210.2964,0,U,45985,999,1283,0,-.276E-5,0
EXPRESS 80,2020-053B,2024-01-19T10:46:47.430048,1.00271339,.0002274,0.0171,47.4848,347.3762,325.1540,0,U,45986,999,1282,0,-.131E-5,0
BSAT-4B,2020-056A,2024-01-20T17:16:42.636288,1.00269566,.0000389,0.0385,139.7275,65.4758,283.3806,0,U,46112,999,1259,0,-.346E-5,0
MEV-2,2020-056B,2024-01-20T09:20:16.770336,1.00269959,.0000748,0.0517,256.2140,63.7777,298.3113,0,U,46113,999,7173,0,-.7E-7,0
GALAXY 30 (G-30),2020-056C,2024-01-20T17:20:27.665088,1.00270674,.0002263,0.0256,61.0953,239.6239,313.9767,0,U,46114,999,1259,0,.41E-6,0
GAOFEN-13 01,2020-071A,2024-01-20T13:09:42.661152,1.00264049,.0012095,0.2345,85.0054,280.3672,69.1624,0,U,46610,999,1210,0,-.359E-5,0
TIANTONG-1 2,2020-082A,2024-01-20T17:49:42.601152,1.00270369,.0002649,2.7092,293.1519,17.3517,201.4999,0,U,46916,999,1183,0,-.347E-5,0
LUCAS (JDRS-1),2020-089A,2024-01-20T13:10:32.836224,1.00270078,.0003232,0.0262,92.5813,204.8086,110.4259,0,U,47202,999,1160,0,-.231E-5,0
SXM-7,2020-096A,2024-01-19T22:37:28.313184,1.00270591,.0002424,0.0167,29.4008,162.3064,181.2228,0,U,47240,999,1149,0,-.2E-5,0
CMS-01,2020-099A,2024-01-20T13:00:32.582592,1.00271561,.0008681,0.0625,95.9104,178.7629,122.8576,0,U,47256,999,1138,0,-.161E-5,0
TURKSAT 5A,2021-001A,2024-01-20T00:53:56.366880,1.00271493,.0000111,0.0239,87.5426,177.1450,258.5867,0,U,47306,999,1115,0,.159E-5,0
TIANTONG-1 3,2021-003A,2024-01-20T11:27:13.281120,1.00271654,.0005107,3.1772,310.4505,345.8600,76.3760,0,U,47321,999,1115,0,-.146E-5,0
TJS-6,2021-010A,2024-01-20T17:04:17.744736,1.00273581,.0001093,0.0243,1.1169,319.5921,233.3817,0,U,47613,999,1099,0,.47E-6,0
SHIYAN 9 (SY-9),2021-019A,2024-01-20T14:56:53.765664,1.00265209,.001466,18.4092,313.7210,6.5122,170.0300,0,U,47851,999,1532,0,-.235E-5,0
